satname,norad_id,inclination_deg,eccentricity,mean_motion_rev_per_day,perigee_km,apogee_km,l1,l2
STARLINK-1560,46036,53.0879,0.0001452,15.14601967,521.18529171919,523.1891458723276,1 46036U 20055K   26065.83334490  .01423706  00000+0  69769-1 0  9994,2 46036  53.0879 139.3239 0001452  96.3653  78.9051 15.14601967  5721
STARLINK-1567,46038,53.0798,0.0001443,15.12737769,526.858522627389,528.8515919351212,1 46038U 20055M   26065.83334490  .01312089  00000+0  68212-1 0  9999,2 46038  53.0798 139.3641 0001443  66.0717  26.6078 15.12737769  5777
STARLINK-1569,46039,53.0863,0.0001947,15.14595097,520.8645875547654,523.5515819307648,1 46039U 20055N   26065.83334490  .00052162  00000+0  27887-2 0  9996,2 46039  53.0863 139.2861 0001947  63.5920  32.2566 15.14595097  5673
STARLINK-1582,46043,53.0799,7.72e-05,15.1267492,527.5131865384628,528.5795012467606,1 46043U 20055S   26065.83334490  .01387816  00000+0  71923-1 0  9998,2 46043  53.0799 139.3660 0000772  46.8194 324.0272 15.12674920  5819
STARLINK-1591,46045,53.0887,4.31e-05,15.1513695,520.2654889093537,520.8601568340855,1 46045U 20055U   26065.83334490  .00044181  00000+0  23312-2 0  9994,2 46045  53.0887 139.2332 0000431 124.0357 180.7531 15.15136950  5775
STARLINK-1524,46047,53.1564,0.0001279,15.29349838,476.8778072136329,478.6315443042922,1 46047U 20055W   26065.45181817  .00000779  00000+0  39318-4 0  9997,2 46047  53.1564 128.8568 0001279  91.1460 268.9687 15.29349838308576
STARLINK-1527,46048,53.1589,0.0001191,15.30165821,474.5008772659876,476.133370038242,1 46048U 20055X   26065.66668981  .00056829  00000+0  19182-2 0  9995,2 46048  53.1589 127.9809 0001191  87.4461 330.0133 15.30165821  5744
STARLINK-1540,46051,53.1562,0.0001594,15.29357178,476.6399139844707,478.8255652574626,1 46051U 20055AA  26065.54828605  .00001188  00000+0  53485-4 0  9991,2 46051  53.1562 128.4237 0001594  73.5950 286.5225 15.29357178308600
STARLINK-1541,46052,53.1578,0.0001317,15.30206157,474.29410174235363,476.0992698351911,1 46052U 20055AB  26065.83334490 -.00015024  00000+0 -49605-3 0  9992,2 46052  53.1578 127.1528 0001317  81.2460 105.1222 15.30206157  5814
STARLINK-1543,46053,53.1565,0.0001565,15.29829848,475.24777680954685,477.3932220068609,1 46053U 20055AC  26065.60982169  .00097745  00000+0  33067-2 0  9992,2 46053  53.1565 128.2139 0001565  78.5759 281.5417 15.29829848308600
STARLINK-1548,46054,53.1551,0.0001652,15.29752605,475.4188413079637,477.6836303010732,1 46054U 20055AD  26065.55192566  .00110105  00000+0  37259-2 0  9994,2 46054  53.1551 128.4829 0001652  91.0835 269.0355 15.29752605308592
STARLINK-1554,46055,53.158,0.0001383,15.30201115,474.26392210155154,476.1595583630997,1 46055U 20055AE  26065.83334490 -.00012045  00000+0 -39519-3 0  9998,2 46055  53.1580 127.3045 0001383  81.7631  40.6051 15.30201115  5670
STARLINK-1564,46058,53.1585,6.99e-05,15.30205147,474.720653212722,475.6787496835841,1 46058U 20055AH  26065.83334490 -.00006507  00000+0 -20775-3 0  9991,2 46058  53.1585 127.6373 0000699  85.1462  48.5292 15.30205147  5712
STARLINK-1570,46059,53.1604,0.0001376,15.30164307,474.3786084457706,476.26468026469684,1 46059U 20055AJ  26065.57728997  .00019670  00000+0  67521-3 0  9995,2 46059  53.1604 128.3676 0001376  85.2268 274.8890 15.30164307308555
STARLINK-1572,46060,53.1548,0.0001345,15.29350543,476.83045165920703,478.674685953215,1 46060U 20055AK  26065.45893228  .00000669  00000+0  35511-4 0  9997,2 46060  53.1548 129.0753 0001345  90.2990 269.8164 15.29350543308546
STARLINK-1573,46061,53.1608,0.0001362,15.30180706,474.33924403267247,476.20611282907794,1 46061U 20055AL  26065.43084204  .00000419  00000+0  26274-4 0  9991,2 46061  53.1608 129.0006 0001362  99.2930 260.8225 15.30180706308573
STARLINK-1577,46063,53.1593,0.0001349,15.30018442,474.8326321563327,476.68181281755915,1 46063U 20055AN  26065.45721760  .00079603  00000+0  26861-2 0  9991,2 46063  53.1593 128.8496 0001349  81.7324 278.3830 15.30018442308579
STARLINK-1583,46064,53.1554,0.0001462,15.29345464,476.7654145938195,478.7700811420973,1 46064U 20055AP  26065.55763400 -.00000677  00000+0 -11130-4 0  9992,2 46064  53.1554 128.4085 0001462  87.7772 272.3396 15.29345464308583
STARLINK-1525,46066,53.0534,9.23e-05,15.11911674,529.7327545005501,531.0080649683869,1 46066U 20055AR  26065.83334490  .01195398  00000+0  63201-1 0  9995,2 46066  53.0534 109.3458 0000923 108.8457 194.6594 15.11911674  5763
STARLINK-1536,46070,53.0541,0.0001303,15.06392453,546.332312571868,548.1370644338913,1 46070U 20055AV  26065.36641568 -.00000113  00000+0  11302-4 0  9993,2 46070  53.0541 111.5438 0001303 110.5159 249.5970 15.06392453308813
STARLINK-1542,46073,53.0548,0.0001317,15.06392663,546.321973511217,548.1461162444375,1 46073U 20055AY  26065.35903999  .00000258  00000+0  36194-4 0  9999,2 46073  53.0548 111.5709 0001317  95.1152 264.9987 15.06392663308801
STARLINK-1549,46074,53.054,0.0001286,15.06388467,546.3563007775347,548.1375095179383,1 46074U 20055AZ  26065.34430357 -.00001326  00000+0 -70180-4 0  9994,2 46074  53.0540 111.6384 0001286  86.9913 273.1224 15.06388467308793
STARLINK-1551,46075,53.0549,0.0001281,15.06392648,546.3469508143007,548.1212308877766,1 46075U 20055BA  26065.50279340  .00000326  00000+0  40769-4 0  9993,2 46075  53.0549 110.9251 0001281 101.9585 258.1548 15.06392648308828
STARLINK-1552,46076,53.0536,0.0001224,15.06386306,546.4058605932505,548.1011961946015,1 46076U 20055BB  26065.52859183 -.00001344  00000+0 -71382-4 0  9993,2 46076  53.0536 110.8082 0001224  94.9073 265.2055 15.06386306308811
STARLINK-1559,46077,53.0252,0.000424,15.29170772,475.38275723260085,481.1970072287313,1 46077U 20055BC  26065.35813431  .00062033  00000+0  21558-2 0  9999,2 46077  53.0252  89.4471 0004240  24.9596 335.1607 15.29170772309076
STARLINK-1566,46079,53.0541,0.0001349,15.06406972,546.2559632069333,548.124416482754,1 46079U 20055BE  26065.81239498  .00001485  00000+0  11856-3 0  9992,2 46079  53.0541 109.5371 0001349  91.8678 268.2465 15.06406972308877
STARLINK-1568,46080,53.0615,0.0006177,15.46201292,423.6465403333559,432.05465741300486,1 46080U 20055BF  26065.83334490  .00087525  00000+0  17413-2 0  9997,2 46080  53.0615  46.6018 0006177 109.3016 191.8045 15.46201292  5887
STARLINK-1578,46082,53.0548,0.0001469,15.06395868,546.2068863886034,548.2415575156128,1 46082U 20055BH  26065.36272966 -.00001640  00000+0 -91267-4 0  9993,2 46082  53.0548 111.5507 0001469  91.2167 268.8991 15.06395868308806
